{
"type": "FeatureCollection",
"name": "MaseerAliasLINE",
"crs": { "type": "name", "properties": { "name": "urn:ogc:def:crs:OGC:1.3:CRS84" } },
"features": [
{"type":"Feature","properties":{"id":1},"geometry":{"type":"MultiLineString","coordinates":[[[39.593909566001251,24.473537841880468],[41.301557138863814,24.635991435076498],[46.363512444134948,31.111557595820493],[47.212979986757901,30.647957236331781]]]}},
{"type":"Feature","properties":{"id":2},"geometry":{"type":"MultiLineString","coordinates":[[[47.210801864853728,30.653578690013592],[47.63771375806936,30.484793055659836]]]}}
]
}
