{
"type": "FeatureCollection",
"name": "MaseerAyesha",
"crs": { "type": "name", "properties": { "name": "urn:ogc:def:crs:OGC:1.3:CRS84" } },
"features": [
{"type":"Feature","properties":{"id":1},"geometry":{"type":"MultiLineString","coordinates":[[[39.601669125284893,24.467094800523508],[39.817439326415887,21.424188230427003],[39.845754911169976,21.439774706860273],[40.118292414428169,21.822195147025603],[40.425492685801785,21.929970376402014],[41.061249033156116,22.645634238296502],[45.962712488901929,28.378428377955704],[45.962712488901929,28.378428377955704],[47.700008257233975,30.400012276823663],[47.700008257233975,30.400012276823663]]]}}
]
}
